NORAD_CAT_ID,OBJECT_NAME,OBJECT_TYPE,EPOCH,MEAN_MOTION,ECCENTRICITY,INCLINATION,RA_OF_ASC_NODE,ARG_OF_PERICENTER,MEAN_ANOMALY,BSTAR,MEAN_MOTION_DOT,MEAN_MOTION_DDOT,TLE_LINE0,TLE_LINE1,TLE_LINE2,SEMIMAJOR_AXIS,PERIOD,APOGEE,PERIGEE,DECAYED
51137.0,STARLINK-3180,PAYLOAD,2024-03-17 19:58:26,15.0875087,0.0001617,53.217,299.6617,84.4993,275.6184,0.0012828,0.00020137,0.0,0 STARLINK-3180,1 51137U 22005AK  24077.83224848  .00020137  00000-0  12828-2 0  9991,2 51137  53.2170 299.6617 0001617  84.4993 275.6184 15.08750870120871,6918.153,95.443,541.137,538.899,0.0
51137.0,STARLINK-3180,PAYLOAD,2024-03-18 15:03:02,15.0883885,0.0001543,53.2177,296.0919,111.9183,248.1973,-1.3152e-05,-4.97e-06,0.0,0 STARLINK-3180,1 51137U 22005AK  24078.62710975 -.00000497  00000-0 -13152-4 0  9992,2 51137  53.2177 296.0919 0001543 111.9183 248.1973 15.08838850119884,6917.884,95.438,540.816,538.681,0.0
51137.0,STARLINK-3180,PAYLOAD,2024-03-18 21:24:34,15.0884038,0.000145,53.2177,294.9029,107.1397,252.9754,-7.0715e-06,-4e-06,0.0,0 STARLINK-3180,1 51137U 22005AK  24078.89206879 -.00000400  00000-0 -70715-5 0  9997,2 51137  53.2177 294.9029 0001450 107.1397 252.9754 15.08840380119920,6917.879,95.438,540.747,538.741,0.0
51137.0,STARLINK-3180,PAYLOAD,2024-03-19 19:39:58,15.08842033,0.0001309,53.2174,290.7462,94.9124,265.2018,9.9334e-05,1.293e-05,0.0,0 STARLINK-3180,1 51137U 22005AK  24079.81942594  .00001293  00000-0  99334-4 0  9997,2 51137  53.2174 290.7462 0001309  94.9124 265.2018 15.08842033121173,6917.874,95.437,540.645,538.834,0.0
51137.0,STARLINK-3180,PAYLOAD,2024-03-20 00:26:07,15.08843949,0.000134,53.2173,289.8465,88.1669,271.9476,0.00011649,1.567e-05,0.0,0 STARLINK-3180,1 51137U 22005AK  24080.01814377  .00001567  00000-0  11649-3 0  9994,2 51137  53.2173 289.8465 0001340  88.1669 271.9476 15.08843949120097,6917.868,95.437,540.66,538.806,0.0
51137.0,STARLINK-3180,PAYLOAD,2024-03-20 21:06:09,15.08832813,0.0001366,53.2174,285.9875,72.6021,287.512,1.5212e-05,-4.6e-07,0.0,0 STARLINK-3180,1 51137U 22005AK  24080.87927834 -.00000046  00000-0  15212-4 0  9994,2 51137  53.2174 285.9875 0001366  72.6021 287.5120 15.08832813121333,6917.902,95.438,540.712,538.822,0.0
51137.0,STARLINK-3180,PAYLOAD,2024-03-21 13:00:00,15.08846034,0.0001382,53.2172,283.0102,104.131,255.9836,-2.0818e-05,-6.19e-06,0.0,0 STARLINK-3180,1 51137U 22005AK  24081.54167244 -.00000619  00000-0 -20818-4 0  9995,2 51137  53.2172 283.0102 0001382 104.1310 255.9836 15.08846034121437,6917.862,95.437,540.683,538.771,0.0
51137.0,STARLINK-3180,PAYLOAD,2024-03-21 20:56:55,15.08853206,0.0001329,53.2161,281.5265,91.8734,268.2411,0.00018479,2.655e-05,0.0,0 STARLINK-3180,1 51137U 22005AK  24081.87286457  .00002655  00000-0  18479-3 0  9998,2 51137  53.2161 281.5265 0001329  91.8734 268.2411 15.08853206121481,6917.84,95.437,540.624,538.786,0.0
51137.0,STARLINK-3180,PAYLOAD,2024-03-22 12:50:47,15.08842238,0.0001192,53.2167,278.5513,90.9848,269.1281,0.00021093,3.071e-05,0.0,0 STARLINK-3180,1 51137U 22005AK  24082.53526978  .00003071  00000-0  21093-3 0  9996,2 51137  53.2167 278.5513 0001192  90.9848 269.1281 15.08842238121582,6917.874,95.437,540.563,538.914,0.0
51137.0,STARLINK-3180,PAYLOAD,2024-03-22 19:12:19,15.08848074,0.0001299,53.2164,277.3642,77.2094,282.9044,0.00022543,3.302e-05,0.0,0 STARLINK-3180,1 51137U 22005AK  24082.80022736  .00003302  00000-0  22543-3 0  9997,2 51137  53.2164 277.3642 0001299  77.2094 282.9044 15.08848074120514,6917.856,95.437,540.619,538.822,0.0
51137.0,STARLINK-3180,PAYLOAD,2024-03-23 19:03:06,15.08842419,0.0001316,53.2155,272.9027,90.2145,269.8998,0.00010266,1.346e-05,0.0,0 STARLINK-3180,1 51137U 22005AK  24083.79383015  .00001346  00000-0  10266-3 0  9991,2 51137  53.2155 272.9027 0001316  90.2145 269.8998 15.08842419121772,6917.873,95.437,540.648,538.828,0.0
51137.0,STARLINK-3180,PAYLOAD,2024-03-24 12:32:21,15.08836636,0.0001631,53.2157,269.6272,112.7248,247.3916,8.154e-05,1.01e-05,0.0,0 STARLINK-3180,1 51137U 22005AK  24084.52247488  .00001010  00000-0  81540-4 0  9998,2 51137  53.2157 269.6272 0001631 112.7248 247.3916 15.08836636121880,6917.891,95.438,540.884,538.627,0.0
51137.0,STARLINK-3180,PAYLOAD,2024-03-24 18:53:54,15.08843553,0.0001383,53.2163,268.4422,85.4234,274.6916,0.0001338,1.842e-05,0.0,0 STARLINK-3180,1 51137U 22005AK  24084.78743273  .00001842  00000-0  13380-3 0  9998,2 51137  53.2163 268.4422 0001383  85.4234 274.6916 15.08843553120817,6917.87,95.437,540.691,538.778,0.0
51137.0,STARLINK-3180,PAYLOAD,2024-03-25 18:44:41,15.08851249,0.0001418,53.2167,263.9811,87.5441,272.5713,0.0003832,5.818e-05,0.0,0 STARLINK-3180,1 51137U 22005AK  24085.78103329  .00005818  00000-0  38320-3 0  9999,2 51137  53.2167 263.9811 0001418  87.5441 272.5713 15.08851249122078,6917.846,95.437,540.692,538.73,0.0
51137.0,STARLINK-3180,PAYLOAD,2024-03-26 04:17:00,15.08841145,0.0001339,53.2153,262.1936,82.0705,278.0439,0.00017404,2.483e-05,0.0,0 STARLINK-3180,1 51137U 22005AK  24086.17847712  .00002483  00000-0  17404-3 0  9999,2 51137  53.2153 262.1936 0001339  82.0705 278.0439 15.08841145122134,6917.877,95.437,540.668,538.816,0.0
51137.0,STARLINK-3180,PAYLOAD,2024-03-26 12:13:56,15.08829849,0.0001626,53.2178,260.7105,86.7601,273.3577,-9.1005e-05,-1.736e-05,0.0,0 STARLINK-3180,1 51137U 22005AK  24086.50968274 -.00001736  00000-0 -91005-4 0  9995,2 51137  53.2178 260.7105 0001626  86.7601 273.3577 15.08829849122181,6917.911,95.438,540.901,538.652,0.0
51137.0,STARLINK-3180,PAYLOAD,2024-03-26 18:35:29,15.08832413,0.0001458,53.2171,259.5217,90.5886,269.5273,1.421e-05,-6.2e-07,0.0,0 STARLINK-3180,1 51137U 22005AK  24086.77464419 -.00000062  00000-0  14210-4 0  9999,2 51137  53.2171 259.5217 0001458  90.5886 269.5273 15.08832413121118,6917.904,95.438,540.777,538.76,0.0
51137.0,STARLINK-3180,PAYLOAD,2024-03-27 20:01:39,15.08845661,0.0001458,53.2173,254.7638,92.6063,267.5096,0.00019228,2.774e-05,0.0,0 STARLINK-3180,1 51137U 22005AK  24087.83448110  .00002774  00000-0  19228-3 0  9991,2 51137  53.2173 254.7638 0001458  92.6063 267.5096 15.08845661122384,6917.863,95.437,540.737,538.719,0.0
51137.0,STARLINK-3180,PAYLOAD,2024-03-28 10:20:07,15.0884153,0.0001309,53.2162,252.0863,87.6628,272.4514,0.00027151,4.036e-05,0.0,0 STARLINK-3180,1 51137U 22005AK  24088.43064502  .00004036  00000-0  27151-3 0  9994,2 51137  53.2162 252.0863 0001309  87.6628 272.4514 15.08841530122470,6917.876,95.437,540.646,538.835,0.0
51137.0,STARLINK-3180,PAYLOAD,2024-03-28 19:52:26,15.08853186,0.0001495,53.2158,250.302,88.0051,272.1113,0.0003584,5.423e-05,0.0,0 STARLINK-3180,1 51137U 22005AK  24088.82807882  .00005423  00000-0  35840-3 0  9998,2 51137  53.2158 250.3020 0001495  88.0051 272.1113 15.08853186122531,6917.84,95.437,540.739,538.671,0.0
51137.0,STARLINK-3180,PAYLOAD,2024-03-29 10:10:54,15.08846006,0.000196,53.2154,247.6249,82.5786,277.5429,4.3085e-05,3.98e-06,0.0,0 STARLINK-3180,1 51137U 22005AK  24089.42424084  .00000398  00000-0  43085-4 0  9991,2 51137  53.2154 247.6249 0001960  82.5786 277.5429 15.08846006122622,6917.862,95.437,541.083,538.371,0.0
51137.0,STARLINK-3180,PAYLOAD,2024-03-29 16:32:26,15.08847083,0.0001226,53.2167,246.4366,92.5233,267.5899,8.1564e-05,1.011e-05,0.0,0 STARLINK-3180,1 51137U 22005AK  24089.68919776  .00001011  00000-0  81564-4 0  9993,2 51137  53.2167 246.4366 0001226  92.5233 267.5899 15.08847083121553,6917.859,95.437,540.572,538.876,0.0
51137.0,STARLINK-3180,PAYLOAD,2024-03-30 03:40:08,15.08853134,7.83e-05,53.2188,244.3555,70.5641,289.5435,0.00019454,2.811e-05,0.0,0 STARLINK-3180,1 51137U 22005AK  24090.15287509  .00002811  00000-0  19454-3 0  9996,2 51137  53.2188 244.3555 0000783  70.5641 289.5435 15.08853134121621,6917.84,95.437,540.247,539.164,0.0
51137.0,STARLINK-3180,PAYLOAD,2024-03-30 19:34:00,15.08842466,0.0001707,53.2111,241.3815,79.2227,280.8957,5.5541e-05,5.96e-06,0.0,0 STARLINK-3180,1 51137U 22005AK  24090.81528106  .00000596  00000-0  55541-4 0  9996,2 51137  53.2111 241.3815 0001707  79.2227 280.8957 15.08842466122839,6917.873,95.437,540.919,538.557,0.0
51137.0,STARLINK-3180,PAYLOAD,2024-03-31 13:03:17,15.0875909,0.0002446,53.2176,238.1112,85.4312,274.696,0.00099745,0.00015587,0.0,0 STARLINK-3180,1 51137U 22005AK  24091.54394933  .00015587  00000-0  99745-3 0  9995,2 51137  53.2176 238.1112 0002446  85.4312 274.6960 15.08759090122946,6918.128,95.443,541.685,538.301,0.0
51137.0,STARLINK-3180,PAYLOAD,2024-03-31 14:38:40,15.08767923,0.0002337,53.2165,237.8129,87.1457,272.9803,0.00082408,0.00012826,0.0,0 STARLINK-3180,1 51137U 22005AK  24091.61018916  .00012826  00000-0  82408-3 0  9998,2 51137  53.2165 237.8129 0002337  87.1457 272.9803 15.08767923121845,6918.101,95.442,541.582,538.349,0.0
51137.0,STARLINK-3180,PAYLOAD,2024-03-31 19:24:48,15.08834378,0.0001112,53.2176,236.9199,80.5901,279.5217,-5.1094e-05,-1.101e-05,0.0,0 STARLINK-3180,1 51137U 22005AK  24091.80888944 -.00001101  00000-0 -51094-4 0  9999,2 51137  53.2176 236.9199 0001112  80.5901 279.5217 15.08834378122982,6917.898,95.438,540.532,538.993,0.0
51137.0,STARLINK-3180,PAYLOAD,2024-04-01 12:54:02,15.08839378,0.0001565,53.2174,233.6497,81.2579,278.859,9.0522e-05,1.153e-05,0.0,0 STARLINK-3180,1 51137U 22005AK  24092.53752612  .00001153  00000-0  90522-4 0  9996,2 51137  53.2174 233.6497 0001565  81.2579 278.8590 15.08839378123090,6917.882,95.438,540.83,538.665,0.0
51137.0,STARLINK-3180,PAYLOAD,2024-04-01 14:29:25,15.08841629,0.000158,53.218,233.3524,82.1238,277.9933,0.00011392,1.526e-05,0.0,0 STARLINK-3180,1 51137U 22005AK  24092.60376445  .00001526  00000-0  11392-3 0  9991,2 51137  53.2180 233.3524 0001580  82.1238 277.9933 15.08841629121994,6917.875,95.437,540.833,538.647,0.0
51137.0,STARLINK-3180,PAYLOAD,2024-04-01 16:04:48,15.08845116,0.000159,53.2173,233.0547,81.6754,278.4418,0.0001382,1.912e-05,0.0,0 STARLINK-3180,1 51137U 22005AK  24092.67000203  .00001912  00000-0  13820-3 0  9991,2 51137  53.2173 233.0547 0001590  81.6754 278.4418 15.08845116123111,6917.865,95.437,540.83,538.63,0.0
